ELYSIUM STAR 2 & LFF    
1 43760U 18099C   24282.48574185  .00402479  00000+0  75444-2 0  9998
2 43760  97.4986 351.9500 0006049 228.2734 131.7998 15.47140721320606
